[{"CCSDS_OMM_VERS":"3.0","COMMENT":"GENERATED VIA SPACE-TRACK.ORG API","CREATION_DATE":"2026-05-21T10:54:40","ORIGINATOR":"18 SPCS","OBJECT_NAME":"BEIDOU 3M12","OBJECT_ID":"2018-067B","CENTER_NAME":"EARTH","REF_FRAME":"TEME","TIME_SYSTEM":"UTC","MEAN_ELEMENT_THEORY":"SGP4","EPOCH":"2026-05-21T04:42:21.331872","MEAN_MOTION":"1.86227230","ECCENTRICITY":"0.00043998","INCLINATION":"54.1757","RA_OF_ASC_NODE":"181.9195","ARG_OF_PERICENTER":"15.6107","MEAN_ANOMALY":"344.4705","EPHEMERIS_TYPE":"0","CLASSIFICATION_TYPE":"U","NORAD_CAT_ID":"43603","ELEMENT_SET_NO":"999","REV_AT_EPOCH":"5264","BSTAR":"0.00000000000000","MEAN_MOTION_DOT":"0.00000036","MEAN_MOTION_DDOT":"0.0000000000000","SEMIMAJOR_AXIS":"27906.565","PERIOD":"773.249","APOAPSIS":"21540.708","PERIAPSIS":"21516.152","OBJECT_TYPE":"PAYLOAD","RCS_SIZE":"LARGE","COUNTRY_CODE":"PRC","LAUNCH_DATE":"2018-08-24","SITE":"XSC","DECAY_DATE":null,"FILE":"5207355","GP_ID":"324061798","TLE_LINE0":"0 BEIDOU 3M12","TLE_LINE1":"1 43603U 18067B   26141.19608023  .00000036  00000-0  00000-0 0  9990","TLE_LINE2":"2 43603  54.1757 181.9195 0004400  15.6107 344.4705  1.86227230 52644"},{"CCSDS_OMM_VERS":"3.0","COMMENT":"GENERATED VIA SPACE-TRACK.ORG API","CREATION_DATE":"2026-05-21T21:06:57","ORIGINATOR":"18 SPCS","OBJECT_NAME":"BEIDOU 3M12","OBJECT_ID":"2018-067B","CENTER_NAME":"EARTH","REF_FRAME":"TEME","TIME_SYSTEM":"UTC","MEAN_ELEMENT_THEORY":"SGP4","EPOCH":"2026-05-21T04:42:21.331872","MEAN_MOTION":"1.86227230","ECCENTRICITY":"0.00044000","INCLINATION":"54.1757","RA_OF_ASC_NODE":"181.9195","ARG_OF_PERICENTER":"15.6107","MEAN_ANOMALY":"344.4705","EPHEMERIS_TYPE":"0","CLASSIFICATION_TYPE":"U","NORAD_CAT_ID":"43603","ELEMENT_SET_NO":"999","REV_AT_EPOCH":"5264","BSTAR":"0.00000000000000","MEAN_MOTION_DOT":"0.00000036","MEAN_MOTION_DDOT":"0.0000000000000","SEMIMAJOR_AXIS":"27906.565","PERIOD":"773.249","APOAPSIS":"21540.709","PERIAPSIS":"21516.151","OBJECT_TYPE":"PAYLOAD","RCS_SIZE":"LARGE","COUNTRY_CODE":"PRC","LAUNCH_DATE":"2018-08-24","SITE":"XSC","DECAY_DATE":null,"FILE":"5207673","GP_ID":"324140856","TLE_LINE0":"0 BEIDOU 3M12","TLE_LINE1":"1 43603U 18067B   26141.19608023  .00000036  00000-0  00000+0 0  9999","TLE_LINE2":"2 43603  54.1757 181.9195 0004400  15.6107 344.4705  1.86227230 52644"},{"CCSDS_OMM_VERS":"3.0","COMMENT":"GENERATED VIA SPACE-TRACK.ORG API","CREATION_DATE":"2026-05-22T22:26:34","ORIGINATOR":"18 SPCS","OBJECT_NAME":"BEIDOU 3M12","OBJECT_ID":"2018-067B","CENTER_NAME":"EARTH","REF_FRAME":"TEME","TIME_SYSTEM":"UTC","MEAN_ELEMENT_THEORY":"SGP4","EPOCH":"2026-05-22T06:28:47.752896","MEAN_MOTION":"1.86227181","ECCENTRICITY":"0.00044330","INCLINATION":"54.1757","RA_OF_ASC_NODE":"181.8830","ARG_OF_PERICENTER":"15.0735","MEAN_ANOMALY":"345.0038","EPHEMERIS_TYPE":"0","CLASSIFICATION_TYPE":"U","NORAD_CAT_ID":"43603","ELEMENT_SET_NO":"999","REV_AT_EPOCH":"5266","BSTAR":"0.00000000000000","MEAN_MOTION_DOT":"0.00000035","MEAN_MOTION_DDOT":"0.0000000000000","SEMIMAJOR_AXIS":"27906.570","PERIOD":"773.249","APOAPSIS":"21540.806","PERIAPSIS":"21516.064","OBJECT_TYPE":"PAYLOAD","RCS_SIZE":"LARGE","COUNTRY_CODE":"PRC","LAUNCH_DATE":"2018-08-24","SITE":"XSC","DECAY_DATE":null,"FILE":"5209282","GP_ID":"324392258","TLE_LINE0":"0 BEIDOU 3M12","TLE_LINE1":"1 43603U 18067B   26142.26999714  .00000035  00000-0  00000+0 0  9997","TLE_LINE2":"2 43603  54.1757 181.8830 0004433  15.0735 345.0038  1.86227181 52669"},{"CCSDS_OMM_VERS":"3.0","COMMENT":"GENERATED VIA SPACE-TRACK.ORG API","CREATION_DATE":"2026-05-22T17:40:47","ORIGINATOR":"18 SPCS","OBJECT_NAME":"BEIDOU 3M12","OBJECT_ID":"2018-067B","CENTER_NAME":"EARTH","REF_FRAME":"TEME","TIME_SYSTEM":"UTC","MEAN_ELEMENT_THEORY":"SGP4","EPOCH":"2026-05-22T06:28:47.753760","MEAN_MOTION":"1.86227181","ECCENTRICITY":"0.00044327","INCLINATION":"54.1757","RA_OF_ASC_NODE":"181.8830","ARG_OF_PERICENTER":"15.0735","MEAN_ANOMALY":"345.0038","EPHEMERIS_TYPE":"0","CLASSIFICATION_TYPE":"U","NORAD_CAT_ID":"43603","ELEMENT_SET_NO":"999","REV_AT_EPOCH":"5266","BSTAR":"0.00000000000000","MEAN_MOTION_DOT":"0.00000035","MEAN_MOTION_DDOT":"0.0000000000000","SEMIMAJOR_AXIS":"27906.570","PERIOD":"773.249","APOAPSIS":"21540.805","PERIAPSIS":"21516.065","OBJECT_TYPE":"PAYLOAD","RCS_SIZE":"LARGE","COUNTRY_CODE":"PRC","LAUNCH_DATE":"2018-08-24","SITE":"XSC","DECAY_DATE":null,"FILE":"5208788","GP_ID":"324326001","TLE_LINE0":"0 BEIDOU 3M12","TLE_LINE1":"1 43603U 18067B   26142.26999715  .00000035  00000-0  00000-0 0  9999","TLE_LINE2":"2 43603  54.1757 181.8830 0004433  15.0735 345.0038  1.86227181 52669"},{"CCSDS_OMM_VERS":"3.0","COMMENT":"GENERATED VIA SPACE-TRACK.ORG API","CREATION_DATE":"2026-05-22T10:14:49","ORIGINATOR":"18 SPCS","OBJECT_NAME":"BEIDOU 3M12","OBJECT_ID":"2018-067B","CENTER_NAME":"EARTH","REF_FRAME":"TEME","TIME_SYSTEM":"UTC","MEAN_ELEMENT_THEORY":"SGP4","EPOCH":"2026-05-22T06:28:47.763264","MEAN_MOTION":"1.86227180","ECCENTRICITY":"0.00044392","INCLINATION":"54.1757","RA_OF_ASC_NODE":"181.8830","ARG_OF_PERICENTER":"15.1734","MEAN_ANOMALY":"344.9041","EPHEMERIS_TYPE":"0","CLASSIFICATION_TYPE":"U","NORAD_CAT_ID":"43603","ELEMENT_SET_NO":"999","REV_AT_EPOCH":"5266","BSTAR":"0.00000000000000","MEAN_MOTION_DOT":"0.00000035","MEAN_MOTION_DDOT":"0.0000000000000","SEMIMAJOR_AXIS":"27906.570","PERIOD":"773.249","APOAPSIS":"21540.824","PERIAPSIS":"21516.047","OBJECT_TYPE":"PAYLOAD","RCS_SIZE":"LARGE","COUNTRY_CODE":"PRC","LAUNCH_DATE":"2018-08-24","SITE":"XSC","DECAY_DATE":null,"FILE":"5208768","GP_ID":"324291297","TLE_LINE0":"0 BEIDOU 3M12","TLE_LINE1":"1 43603U 18067B   26142.26999726  .00000035  00000-0  00000-0 0  9991","TLE_LINE2":"2 43603  54.1757 181.8830 0004439  15.1734 344.9041  1.86227180 52666"},{"CCSDS_OMM_VERS":"3.0","COMMENT":"GENERATED VIA SPACE-TRACK.ORG API","CREATION_DATE":"2026-05-23T17:30:58","ORIGINATOR":"18 SPCS","OBJECT_NAME":"BEIDOU 3M12","OBJECT_ID":"2018-067B","CENTER_NAME":"EARTH","REF_FRAME":"TEME","TIME_SYSTEM":"UTC","MEAN_ELEMENT_THEORY":"SGP4","EPOCH":"2026-05-22T06:28:47.824608","MEAN_MOTION":"1.86227146","ECCENTRICITY":"0.00044575","INCLINATION":"54.1758","RA_OF_ASC_NODE":"181.8829","ARG_OF_PERICENTER":"15.1128","MEAN_ANOMALY":"344.9647","EPHEMERIS_TYPE":"0","CLASSIFICATION_TYPE":"U","NORAD_CAT_ID":"43603","ELEMENT_SET_NO":"999","REV_AT_EPOCH":"5266","BSTAR":"0.00000000000000","MEAN_MOTION_DOT":"0.00000035","MEAN_MOTION_DDOT":"0.0000000000000","SEMIMAJOR_AXIS":"27906.574","PERIOD":"773.249","APOAPSIS":"21540.878","PERIAPSIS":"21515.999","OBJECT_TYPE":"PAYLOAD","RCS_SIZE":"LARGE","COUNTRY_CODE":"PRC","LAUNCH_DATE":"2018-08-24","SITE":"XSC","DECAY_DATE":null,"FILE":"5210736","GP_ID":"324548466","TLE_LINE0":"0 BEIDOU 3M12","TLE_LINE1":"1 43603U 18067B   26142.26999797  .00000035  00000-0  00000-0 0  9999","TLE_LINE2":"2 43603  54.1758 181.8829 0004458  15.1128 344.9647  1.86227146 52667"},{"CCSDS_OMM_VERS":"3.0","COMMENT":"GENERATED VIA SPACE-TRACK.ORG API","CREATION_DATE":"2026-05-25T04:06:45","ORIGINATOR":"18 SPCS","OBJECT_NAME":"BEIDOU 3M12","OBJECT_ID":"2018-067B","CENTER_NAME":"EARTH","REF_FRAME":"TEME","TIME_SYSTEM":"UTC","MEAN_ELEMENT_THEORY":"SGP4","EPOCH":"2026-05-22T19:22:01.149600","MEAN_MOTION":"1.86227142","ECCENTRICITY":"0.00044605","INCLINATION":"54.1759","RA_OF_ASC_NODE":"181.8646","ARG_OF_PERICENTER":"15.0351","MEAN_ANOMALY":"345.0417","EPHEMERIS_TYPE":"0","CLASSIFICATION_TYPE":"U","NORAD_CAT_ID":"43603","ELEMENT_SET_NO":"999","REV_AT_EPOCH":"5267","BSTAR":"0.00000000000000","MEAN_MOTION_DOT":"0.00000038","MEAN_MOTION_DDOT":"0.0000000000000","SEMIMAJOR_AXIS":"27906.574","PERIOD":"773.249","APOAPSIS":"21540.887","PERIAPSIS":"21515.991","OBJECT_TYPE":"PAYLOAD","RCS_SIZE":"LARGE","COUNTRY_CODE":"PRC","LAUNCH_DATE":"2018-08-24","SITE":"XSC","DECAY_DATE":null,"FILE":"5212715","GP_ID":"324761162","TLE_LINE0":"0 BEIDOU 3M12","TLE_LINE1":"1 43603U 18067B   26142.80695775  .00000038  00000-0  00000-0 0  9991","TLE_LINE2":"2 43603  54.1759 181.8646 0004460  15.0351 345.0417  1.86227142 52679"},{"CCSDS_OMM_VERS":"3.0","COMMENT":"GENERATED VIA SPACE-TRACK.ORG API","CREATION_DATE":"2026-05-23T15:56:46","ORIGINATOR":"18 SPCS","OBJECT_NAME":"BEIDOU 3M12","OBJECT_ID":"2018-067B","CENTER_NAME":"EARTH","REF_FRAME":"TEME","TIME_SYSTEM":"UTC","MEAN_ELEMENT_THEORY":"SGP4","EPOCH":"2026-05-22T19:22:01.149600","MEAN_MOTION":"1.86227142","ECCENTRICITY":"0.00044600","INCLINATION":"54.1759","RA_OF_ASC_NODE":"181.8646","ARG_OF_PERICENTER":"15.0351","MEAN_ANOMALY":"345.0417","EPHEMERIS_TYPE":"0","CLASSIFICATION_TYPE":"U","NORAD_CAT_ID":"43603","ELEMENT_SET_NO":"999","REV_AT_EPOCH":"5267","BSTAR":"0.00000000000000","MEAN_MOTION_DOT":"0.00000038","MEAN_MOTION_DDOT":"0.0000000000000","SEMIMAJOR_AXIS":"27906.574","PERIOD":"773.249","APOAPSIS":"21540.885","PERIAPSIS":"21515.993","OBJECT_TYPE":"PAYLOAD","RCS_SIZE":"LARGE","COUNTRY_CODE":"PRC","LAUNCH_DATE":"2018-08-24","SITE":"XSC","DECAY_DATE":null,"FILE":"5210150","GP_ID":"324472706","TLE_LINE0":"0 BEIDOU 3M12","TLE_LINE1":"1 43603U 18067B   26142.80695775  .00000038  00000-0  00000+0 0  9990","TLE_LINE2":"2 43603  54.1759 181.8646 0004460  15.0351 345.0417  1.86227142 52679"}]